{
  "type": "FeatureCollection",
  "features": [
    {
      "type": "Feature",
      "properties": {
        "norad_id": 31825,
        "name": "FENGYUN 1C DEB",
        "group": "fengyun-1c-debris",
        "lat": -32.44082323525563,
        "lon": -9.637555235271332,
        "alt_km": 710.756483502606,
        "timestamp": "2025-12-11T05:00:26.593003+00:00",
        "meta_object_name": "FENGYUN 1C DEB",
        "meta_object_id": "1999-025CHP",
        "meta_epoch": "2025-12-09T05:51:39.972096",
        "meta_mean_motion": 14.21627347,
        "meta_eccentricity": 0.016579,
        "meta_inclination": 98.5906,
        "meta_ra_of_asc_node": 342.9358,
        "meta_arg_of_pericenter": 348.4988,
        "meta_mean_anomaly": 11.2421,
        "meta_ephemeris_type": 0,
        "meta_classification_type": "U",
        "meta_norad_cat_id": 31825,
        "meta_element_set_no": 999,
        "meta_rev_at_epoch": 95572,
        "meta_bstar": 0.0011959,
        "meta_mean_motion_dot": 2.973e-05,
        "meta_mean_motion_ddot": 0,
        "tle_line1": "1 31825U 99025CHP 25343.24421264  .00002973  00000+0  11959-2 0  9993",
        "tle_line2": "2 31825  98.5906 342.9358 0165790 348.4988  11.2421 14.21627347955720"
      },
      "geometry": {
        "type": "Point",
        "coordinates": [
          -9.637555235271332,
          -32.44082323525563
        ]
      }
    },
    {
      "type": "Feature",
      "properties": {
        "norad_id": 31826,
        "name": "FENGYUN 1C DEB",
        "group": "fengyun-1c-debris",
        "lat": -25.193093634736,
        "lon": 152.28092154971594,
        "alt_km": 745.9503819492438,
        "timestamp": "2025-12-11T05:00:26.593013+00:00",
        "meta_object_name": "FENGYUN 1C DEB",
        "meta_object_id": "1999-025CHQ",
        "meta_epoch": "2025-12-07T22:21:17.489088",
        "meta_mean_motion": 14.19262669,
        "meta_eccentricity": 0.01237706,
        "meta_inclination": 98.6257,
        "meta_ra_of_asc_node": 333.1845,
        "meta_arg_of_pericenter": 203.2304,
        "meta_mean_anomaly": 186.995,
        "meta_ephemeris_type": 0,
        "meta_classification_type": "U",
        "meta_norad_cat_id": 31826,
        "meta_element_set_no": 999,
        "meta_rev_at_epoch": 95746,
        "meta_bstar": 0.00053844954,
        "meta_mean_motion_dot": 1.176e-05,
        "meta_mean_motion_ddot": 0,
        "tle_line1": "1 31826U 99025CHQ 25341.93145242  .00001176  00000+0  53845-3 0  9992",
        "tle_line2": "2 31826  98.6257 333.1845 0123770 203.2304 186.9950 14.19262669957465"
      },
      "geometry": {
        "type": "Point",
        "coordinates": [
          152.28092154971594,
          -25.193093634736
        ]
      }
    },
    {
      "type": "Feature",
      "properties": {
        "norad_id": 31829,
        "name": "FENGYUN 1C DEB",
        "group": "fengyun-1c-debris",
        "lat": -23.64383146879764,
        "lon": -28.788050284669417,
        "alt_km": 836.9339250271423,
        "timestamp": "2025-12-11T05:00:26.593022+00:00",
        "meta_object_name": "FENGYUN 1C DEB",
        "meta_object_id": "1999-025CHT",
        "meta_epoch": "2025-12-10T17:46:33.788640",
        "meta_mean_motion": 13.88679676,
        "meta_eccentricity": 0.01690998,
        "meta_inclination": 98.8354,
        "meta_ra_of_asc_node": 154.6728,
        "meta_arg_of_pericenter": 169.8915,
        "meta_mean_anomaly": 214.6031,
        "meta_ephemeris_type": 0,
        "meta_classification_type": "U",
        "meta_norad_cat_id": 31829,
        "meta_element_set_no": 999,
        "meta_rev_at_epoch": 94120,
        "meta_bstar": 0.00069465665,
        "meta_mean_motion_dot": 8.98e-06,
        "meta_mean_motion_ddot": 0,
        "tle_line1": "1 31829U 99025CHT 25344.74066885  .00000898  00000+0  69466-3 0  9998",
        "tle_line2": "2 31829  98.8354 154.6728 0169099 169.8915 214.6031 13.88679676941202"
      },
      "geometry": {
        "type": "Point",
        "coordinates": [
          -28.788050284669417,
          -23.64383146879764
        ]
      }
    },
    {
      "type": "Feature",
      "properties": {
        "norad_id": 31830,
        "name": "FENGYUN 1C DEB",
        "group": "fengyun-1c-debris",
        "lat": -56.917327798353725,
        "lon": -103.4130090435654,
        "alt_km": 934.9346373229882,
        "timestamp": "2025-12-11T05:00:26.593032+00:00",
        "meta_object_name": "FENGYUN 1C DEB",
        "meta_object_id": "1999-025CHU",
        "meta_epoch": "2025-12-08T06:32:34.361088",
        "meta_mean_motion": 13.83392164,
        "meta_eccentricity": 0.01820132,
        "meta_inclination": 99.1645,
        "meta_ra_of_asc_node": 88.0728,
        "meta_arg_of_pericenter": 326.568,
        "meta_mean_anomaly": 59.2383,
        "meta_ephemeris_type": 0,
        "meta_classification_type": "U",
        "meta_norad_cat_id": 31830,
        "meta_element_set_no": 999,
        "meta_rev_at_epoch": 92678,
        "meta_bstar": 0.0025930533,
        "meta_mean_motion_dot": 3.197e-05,
        "meta_mean_motion_ddot": 0,
        "tle_line1": "1 31830U 99025CHU 25342.27261992  .00003197  00000+0  25931-2 0  9995",
        "tle_line2": "2 31830  99.1645  88.0728 0182013 326.5680  59.2383 13.83392164926781"
      },
      "geometry": {
        "type": "Point",
        "coordinates": [
          -103.4130090435654,
          -56.917327798353725
        ]
      }
    },
    {
      "type": "Feature",
      "properties": {
        "norad_id": 31834,
        "name": "FENGYUN 1C DEB",
        "group": "fengyun-1c-debris",
        "lat": -78.37655695654087,
        "lon": -108.77470120096709,
        "alt_km": 1003.5782321913312,
        "timestamp": "2025-12-11T05:00:26.593043+00:00",
        "meta_object_name": "FENGYUN 1C DEB",
        "meta_object_id": "1999-025CHY",
        "meta_epoch": "2025-12-09T20:53:13.363584",
        "meta_mean_motion": 14.03149473,
        "meta_eccentricity": 0.01627896,
        "meta_inclination": 98.3687,
        "meta_ra_of_asc_node": 204.2994,
        "meta_arg_of_pericenter": 85.6379,
        "meta_mean_anomaly": 276.3369,
        "meta_ephemeris_type": 0,
        "meta_classification_type": "U",
        "meta_norad_cat_id": 31834,
        "meta_element_set_no": 999,
        "meta_rev_at_epoch": 63670,
        "meta_bstar": 0.0003269866,
        "meta_mean_motion_dot": 5.35e-06,
        "meta_mean_motion_ddot": 0,
        "tle_line1": "1 31834U 99025CHY 25343.87029356  .00000535  00000+0  32699-3 0  9995",
        "tle_line2": "2 31834  98.3687 204.2994 0162789  85.6379 276.3369 14.03149473636707"
      },
      "geometry": {
        "type": "Point",
        "coordinates": [
          -108.77470120096709,
          -78.37655695654087
        ]
      }
    },
    {
      "type": "Feature",
      "properties": {
        "norad_id": 31837,
        "name": "FENGYUN 1C DEB",
        "group": "fengyun-1c-debris",
        "lat": 67.96695122620287,
        "lon": -98.66406241479925,
        "alt_km": 612.4924927223146,
        "timestamp": "2025-12-11T05:00:26.593058+00:00",
        "meta_object_name": "FENGYUN 1C DEB",
        "meta_object_id": "1999-025CJB",
        "meta_epoch": "2025-12-10T10:41:42.278208",
        "meta_mean_motion": 14.82175329,
        "meta_eccentricity": 0.00940075,
        "meta_inclination": 98.1006,
        "meta_ra_of_asc_node": 59.9579,
        "meta_arg_of_pericenter": 25.3203,
        "meta_mean_anomaly": 335.2573,
        "meta_ephemeris_type": 0,
        "meta_classification_type": "U",
        "meta_norad_cat_id": 31837,
        "meta_element_set_no": 999,
        "meta_rev_at_epoch": 98325,
        "meta_bstar": 0.0015963296,
        "meta_mean_motion_dot": 0.00013698,
        "meta_mean_motion_ddot": 0,
        "tle_line1": "1 31837U 99025CJB 25344.44562822  .00013698  00000+0  15963-2 0  9990",
        "tle_line2": "2 31837  98.1006  59.9579 0094007  25.3203 335.2573 14.82175329983254"
      },
      "geometry": {
        "type": "Point",
        "coordinates": [
          -98.66406241479925,
          67.96695122620287
        ]
      }
    },
    {
      "type": "Feature",
      "properties": {
        "norad_id": 31838,
        "name": "FENGYUN 1C DEB",
        "group": "fengyun-1c-debris",
        "lat": -29.931362783084978,
        "lon": 40.98955226869627,
        "alt_km": 845.2173653453092,
        "timestamp": "2025-12-11T05:00:26.593070+00:00",
        "meta_object_name": "FENGYUN 1C DEB",
        "meta_object_id": "1999-025CJC",
        "meta_epoch": "2025-12-06T08:49:21.453024",
        "meta_mean_motion": 14.21105731,
        "meta_eccentricity": 0.00388378,
        "meta_inclination": 98.7183,
        "meta_ra_of_asc_node": 31.1437,
        "meta_arg_of_pericenter": 113.4762,
        "meta_mean_anomaly": 303.75,
        "meta_ephemeris_type": 0,
        "meta_classification_type": "U",
        "meta_norad_cat_id": 31838,
        "meta_element_set_no": 999,
        "meta_rev_at_epoch": 64486,
        "meta_bstar": 0.0013391766,
        "meta_mean_motion_dot": 2.888e-05,
        "meta_mean_motion_ddot": 0,
        "tle_line1": "1 31838U 99025CJC 25340.36760941  .00002888  00000+0  13392-2 0  9993",
        "tle_line2": "2 31838  98.7183  31.1437 0038837 113.4762 303.7500 14.21105731644864"
      },
      "geometry": {
        "type": "Point",
        "coordinates": [
          40.98955226869627,
          -29.931362783084978
        ]
      }
    }
  ]
}